NAVSTAR 48 (USA 151)    
1 26407U 00040A   26173.82081596  .00000046  00000+0  00000+0 0  9999
2 26407  54.8508 214.9384 0120968 302.5203  88.9508  2.00557766190065
NAVSTAR 51 (USA 166)    
1 27663U 03005A   26173.14469260  .00000038  00000+0  00000+0 0  9992
2 27663  54.8815 214.7718 0147979  53.0867 346.2445  2.00560345171410
NAVSTAR 54 (USA 177)    
1 28190U 04009A   26173.39426713 -.00000077  00000+0  00000+0 0  9990
2 28190  54.8252 275.4767 0116342 173.3226 199.2352  2.00554594163057
NAVSTAR 56 (USA 180)    
1 28474U 04045A   26173.53976058 -.00000101  00000+0  00000+0 0  9991
2 28474  55.1326 324.6805 0169876 316.5357 226.0249  2.00556172158539
NAVSTAR 57 (USA 183)    
1 28874U 05038A   26173.82916896 -.00000073  00000+0  00000+0 0  9992
2 28874  54.8732 272.9496 0127936 296.2077  59.2231  2.00565337151943
INMARSAT 4-F2           
1 28899U 05044A   26172.98880230 -.00000263  00000+0  00000+0 0  9995
2 28899   5.1017  43.6996 0003083  37.4039 328.5195  1.00271669 75578
NAVSTAR 58 (USA 190)    
1 29486U 06042A   26173.47394897  .00000076  00000+0  00000+0 0  9992
2 29486  54.7115 151.1291 0106724  54.5429 302.9560  2.00569602144490
NAVSTAR 59 (USA 192)    
1 29601U 06052A   26172.90572389  .00000037  00000+0  00000+0 0  9990
2 29601  54.9339 213.8191 0085492  90.7942 270.2511  2.00558294143503
NAVSTAR 60 (USA 196)    
1 32260U 07047A   26173.21082181 -.00000062  00000+0  00000+0 0  9990
2 32260  54.0988  79.8584 0166962  87.4865 274.4365  2.00555002136918
COSMOS 2433 [GLONASS-M] 
1 32275U 07052A   26169.32339645 -.00000055  00000+0  00000+0 0  9991
2 32275  65.5762 315.8954 0002576 193.7419 166.2393  2.13103991145088
COSMOS 2432 [GLONASS-M] 
1 32276U 07052B   26173.62017409 -.00000075  00000+0  00000+0 0  9993
2 32276  65.5899 315.8780 0007488 330.0446  30.1529  2.13103050145200
NAVSTAR 61 (USA 199)    
1 32384U 07062A   26173.51698934 -.00000075  00000+0  00000+0 0  9990
2 32384  55.0272 273.9382 0035810 165.9476 182.5532  2.00560436135610
COSMOS 2434 [GLONASS-M] 
1 32393U 07065A   26173.45975788  .00000088  00000+0  00000+0 0  9994
2 32393  64.3184 191.7381 0001214 331.3040 211.7809  2.13101245143881
COSMOS 2436 [GLONASS-M] 
1 32395U 07065C   26173.14632410  .00000084  00000+0  00000+0 0  9990
2 32395  64.3269 191.8207 0017276 353.7327  81.1911  2.13100062143830
NAVSTAR 62 (USA 201)    
1 32711U 08012A   26173.12169595  .00000074  00000+0  00000+0 0  9991
2 32711  54.4981 149.7276 0211361 247.9058 109.8201  2.00572568133858
NAVSTAR 64 (USA 206)    
1 35752U 09043A   26173.31815745 -.00000099  00000+0  00000+0 0  9998
2 35752  56.2136  27.2501 0053785  83.4182  67.8584  2.00554048123460
COSMOS 2456 [GLONASS-M] 
1 36111U 09070A   26173.20908801 -.00000062  00000+0  00000+0 0  9992
2 36111  65.0142  70.8005 0004447 334.7501 174.2004  2.13103557128538
COSMOS 2457 [GLONASS-M] 
1 36112U 09070B   26170.28409466 -.00000033  00000+0  00000+0 0  9999
2 36112  64.9980  70.7445 0002927 121.9797  70.3947  2.13101026128472
COSMOS 2460 [GLONASS-M] 
1 36402U 10007C   26172.37328227 -.00000068  00000+0  00000+0 0  9998
2 36402  65.4181 314.3249 0002093 116.2871 240.7896  2.13101449126817
NAVSTAR 65 (USA 213)    
1 36585U 10022A   26171.69905779  .00000034  00000+0  00000+0 0  9996
2 36585  54.2700 208.4205 0126401  66.1303 114.9344  2.00562607117666
BEIDOU-2 IGSO-1         
1 36828U 10036A   26172.91015765 -.00000061  00000+0  00000+0 0  9995
2 36828  54.3043 162.9159 0059112 225.3077 317.1392  1.00270451 58149
BEIDOU-2 G4             
1 37210U 10057A   26173.63373038 -.00000112  00000+0  00000+0 0  9991
2 37210   3.6615  68.9255 0005085 195.3895  34.6238  1.00270898 57349
BEIDOU-2 IGSO-2         
1 37256U 10068A   26171.70907590 -.00000228  00000+0  00000+0 0  9993
2 37256  47.5404 271.7871 0055935 212.8657 147.5253  1.00282061 56839
GSAT-8                  
1 37605U 11022A   26173.81613807  .00000087  00000+0  00000+0 0  9993
2 37605   2.1465  81.7614 0001811 191.1668 346.9381  1.00271284 53277
BEIDOU-2 IGSO-4         
1 37763U 11038A   26171.66976073  .00000027  00000+0  00000+0 0  9997
2 37763  54.6011 165.6404 0159492 231.4735 206.4270  1.00284412 54682
GSAT0101 (GALILEO-PFM)  
1 37846U 11060A   26173.12766908 -.00000097  00000+0  00000+0 0  9999
2 37846  56.9925 341.6270 0002930  54.4577 305.5662  1.70475754 91204
GSAT0102 (GALILEO-FM2)  
1 37847U 11060B   26173.64248375 -.00000098  00000+0  00000+0 0  9991
2 37847  56.9929 341.6135 0002935  14.6375 346.9660  1.70476006 91228
COSMOS 2476 [GLONASS-M] 
1 37867U 11064A   26173.36699142 -.00000061  00000+0  00000+0 0  9998
2 37867  65.2731  72.6963 0022606 238.5611 299.8582  2.13103651113877
COSMOS 2477 [GLONASS-M] 
1 37868U 11064B   26171.26952727 -.00000039  00000+0  00000+0 0  9992
2 37868  65.2782  72.8466 0019648 240.0065 309.6331  2.13102843113826
COSMOS 2475 [GLONASS-M] 
1 37869U 11064C   26173.16843976 -.00000059  00000+0  00000+0 0  9991
2 37869  65.2860  72.8040 0025357 252.9745 268.5458  2.13101679113877
